[{"OBJECT_NAME":"JILIN-1 GAOFEN 03D13","OBJECT_ID":"2022-019Y","EPOCH":"2026-03-09T22:29:05.103168","MEAN_MOTION":15.66086161,"ECCENTRICITY":0.00041625,"INCLINATION":97.3674,"RA_OF_ASC_NODE":159.1591,"ARG_OF_PERICENTER":171.5165,"MEAN_ANOMALY":188.6166,"EPHEMERIS_TYPE":0,"CLASSIFICATION_TYPE":"U","NORAD_CAT_ID":51846,"ELEMENT_SET_NO":999,"REV_AT_EPOCH":22427,"BSTAR":0.0010266873,"MEAN_MOTION_DOT":0.00106185,"MEAN_MOTION_DDOT":0},{"OBJECT_NAME":"IRIDIUM 82","OBJECT_ID":"1998-051A","EPOCH":"2026-03-09T17:14:32.931744","MEAN_MOTION":15.58179803,"ECCENTRICITY":0.0047439,"INCLINATION":86.3594,"RA_OF_ASC_NODE":336.9899,"ARG_OF_PERICENTER":358.1791,"MEAN_ANOMALY":1.9292,"EPHEMERIS_TYPE":0,"CLASSIFICATION_TYPE":"U","NORAD_CAT_ID":25467,"ELEMENT_SET_NO":999,"REV_AT_EPOCH":46488,"BSTAR":0.0011204022,"MEAN_MOTION_DOT":0.00089782,"MEAN_MOTION_DDOT":0}]
